country;state;viewid;name;lat;lon;radius;dimratio
ALB;ALL;0;Albania;41.1532205;20.160916;104.3183023917;2.2341311686
AND;ALL;0;Andorra;42.5418155;1.597564;9.6237764287;0.8125213935
ARM;ALL;0;Armenia;40.0698355;45.039959;85.1378232508;1.0097884878
AUT;ALL;0;Austria;47.696511;13.345778;177.3516923049;0.5159193439
AZE;ALL;0;Azerbaijan;40.1510825;47.689729;141.5050465223;0.8593382217
BEL;ALL;0;Belgium;50.501172;4.475497;84.9867629346;0.8168526403
BGR;ALL;0;Bulgaria;42.726924;25.4838645;158.5694564701;0.6498742078
BIH;ALL;0;Bosnia and Herzegovina;43.9184555;17.671863;97.1209983046;0.9670178044
BLR;ALL;0;Belarus;53.711842;27.986706;196.4095112577;0.8652063609
CAN;AB;0;Alberta;54.5012625;-115.001393;378.6128629796;1.8955981053
CAN;ALL;0;Canada;56.303904;-96.810722;1451.164757177;0.6327809083
CAN;ALL;1;Southwestern Canada;54.5;-120;514.7207525176;0.732748677
CAN;ALL;2;Southern Canada;51;-94.5;614.8424952655;1.1496328693
CAN;ALL;3;Southeastern Canada;46;-68;659.652690464;0.4134520908
CAN;ALL;4;Northwestern Canada;65;-132;568.8046092347;0.6016216062
CAN;BC;0;British Columbia;54.1548865;-126.5575285;499.7153886195;0.8025746715
CAN;MB;0;Manitoba;54.5012625;-95.4868435;378.6128629796;1.4545309838
CAN;NB;0;New Brunswick;46.451398;-66.41097;125.7060319082;0.8913345412
CAN;NL;0;Newfoundland and Labrador;53.4948585;-60.218024;472.6698293988;1.5255972112
CAN;NS;0;Nova Scotia;45.213898;-63.035803;163.4485262926;0.7705827568
CAN;NT;0;Northwest Territories;65.3194645;-119.234164;487.758719676;0.7484790922
CAN;ON;0;Ontario;49.3849415;-84.7487835;512.7762764702;1.107436148
CAN;PE;0;Prince Edward Island;46.5036065;-63.1920385;58.1449398082;0.6604386773
CAN;QC;0;Quebec;53.8031175;-68.322859;600.8642533061;1.3327403511
CAN;SK;0;Saskatchewan;54.5012625;-105.682143;378.6128629796;2.1939589378
CAN;YT;0;Yukon;64.823584;-132.409892;332.4233635541;1.3235901651
CHE;ALL;0;Switzerland;46.8127845;8.2226545;107.2476025836;0.6418592234
CONT;EUR;25;Europe;53.0606645;19.75;1192.2972881541;1.0622471685
CONT;EUR;26;Northwestern Europe;54.425;-1.625;354.7399267332;0.9661132713
CONT;EUR;27;Southwestern Europe;43.55;-0.625;517.6865646856;1.1759943955
CONT;EUR;28;Northern Europe;63;18.045;561.374023334;1.3562675889
CONT;EUR;29;Central Europe;50.345;14.945;394.5254431905;0.7980684249
CONT;EUR;30;Southern Europe;40.84;17.875;579.8750150902;0.7361762077
CONT;EUR;31;Northeastern Europe;58.95;32.5;406.0774050141;0.855609499
CONT;EUR;32;Eastern Europe;50.65;34.725;622.7718615009;0.6195792983
CONT;EUR;33;Southeastern Europe;40;37.65;658.5236831317;0.5695001457
CONT;NAM;25;North America;42.6;-96.809631;1832.7135776502;0.9102677099
SYS;EURE;0;International European Roads;53.0606645;38.9;1650.1075618151;0.6792379222
CYP;ALL;0;Cyprus;35.12962;33.430515;65.6769153603;0.5972330282
CZE;ALL;0;Czech Republic;49.803583;15.4754475;150.9255716448;0.5733903184
DEU;ALL;0;Germany;51.164393;10.5771585;268.7129633696;1.3916741113
DNK;ALL;0;Denmark;56.1555165;10.4464785;110.3792590572;1.2067245149
ESP;ALL;0;Spain;39.8956865;-2.987451;333.4658355397;0.8051422338
ESP;ALL;1;Canary Islands;28.5;-15.85;154.8728309688;0.446266183
EST;ALL;0;Estonia;58.592314;24.987267;116.0671826861;0.6451162992
FIN;ALL;0;Finland;64.9500975;26.0671815;354.2290669396;2.203055996
FRA;ALL;0;France;46.712686;1.5442795;315.7957729227;0.9562202585
FRA;ALL;1;Corsica;42.15;9.025;62.2429787216;2.3122720286
FRA;ALL;2;Martinique;14.635;-61.015;16.2542018712;1.1847818556
FRA;FRA;0;France;46.712686;1.5442795;315.7957729227;0.9562202585
FRA;MTQ;0;Martinique;14.635;-61.015;16.2542018712;1.1847818556
GBR;ALL;0;United Kingdom;54.675254;-3.206777;325.1925618081;1.643058268
GBR;ENG;0;England;52.884699;-1.9776355;202.1858240884;1.2973174657
GBR;NIR;0;Northern Ireland;54.666944;-6.8045945;54.871804775;0.8116297968
GBR;SCT;0;Scotland;57.0130435;-4.715837;164.4571925231;1.4825898076
GBR;WLS;0;Wales;52.4045055;-4.0048715;70.9265463613;1.2468846507
GEO;ALL;0;Georgia;42.3212255;43.3694545;171.7377605372;0.5089580032
GRC;ALL;0;Greece;38.334933;23.810619;240.1876598902;0.9812118989
HRV;ALL;0;Croatia;44.473734;16.4689415;146.9010932836;0.9792695037
HUN;ALL;0;Hungary;47.159959;19.505903;159.3728365255;0.6170070609
IRL;ALL;0;Ireland;53.401884;-8.3065945;137.0059731189;1.4397560583
ITA;ALL;0;Italy;41.86836;12.573587;359.8351115544;1.180602772
KAZ;ALL;0;Kazakhstan;48.004155;66.904352;907.5753348728;0.5512310927
KGZ;ALL;0;Kyrgyzstan;41.2224585;74.7724755;286.291724092;0.4921062679
LIE;ALL;0;Liechtenstein;47.1594905;9.5537725;7.6883222686;1.9934472802
LTU;ALL;0;Lithuania;55.1734835;23.895375;116.0566572532;0.7606163038
LUX;ALL;0;Luxembourg;49.815488;6.1351565;25.4155219711;1.4388461399
LVA;ALL;0;Latvia;56.881554;24.611209;137.0804118499;0.6071539781
MDA;ALL;0;Moldova;46.972118;28.376975;104.7208855027;1.2638580717
MEX;ALL;0;Mexico;23.635;-101.95;930.2794747992;0.6558342924
MEX;ALL;1;Southern Mexico;19.15;-100.5;357.8339525083;0.8951284729
MEX;ALL;2;Southeastern Mexico;19.15;-90.85;320.5697659176;1.1862299693
MEX;ALL;3;Northwestern Mexico;28.2;-112;303.8005738474;0.9988047299
MEX;ALL;4;Northern Mexico;28.2;-102;303.8005738474;0.9988047299
MEX;MEX-AGS ;0;Aguascalientes  ;22.0410535;-102.3550405;33.3228952987;0.869523233
MEX;MEX-BC;0;Baja California;30.330398;-114.9463825;165.0136830639;1.2694195292
MEX;MEX-BCS;0;Baja California Sur;25.4841915;-112.248086;180.5117761301;1.0210998844
MEX;MEX-CAMP;0;Campeche ;19.3188865;-90.790484;109.4141251676;0.950189961
MEX;MEX-CHIH;0;Chihuahua ;28.6956345;-106.18888;213.2663589418;1.2220304916
MEX;MEX-CHIS;0;Chiapas;16.266232;-92.301935;127.9667733656;0.9347007357
MEX;MEX-COAH;0;Coahuila ;27.2146835;-101.9135625;184.1095904829;1.4470672458
MEX;MEX-COL;0;Colima ;19.109945;-104.0435785;36.4701252075;0.7937349437
MEX;MEX-DF;0;Distrito Federal ;19.3207845;-99.1492795;18.7481322509;1.3738371607
MEX;MEX-DGO;0;Durango ;24.612234;-104.8017645;152.9856586109;1.0471823248
MEX;MEX-EMEX;0;Estado de México ;19.3263325;-99.6170815;66.1725245238;1.0139354857
MEX;MEX-GRO;0;Guerrero;17.59316;-100.1019005;137.1141406335;0.659555926
MEX;MEX-GTO;0;Guanajuato ;20.87763;-100.9017575;79.5202212748;0.8413184802
MEX;MEX-HGO;0;Hidalgo ;20.500629;-98.910874;62.5994039412;1.0138277913
MEX;MEX-JAL;0;Jalisco ;20.829279;-103.602326;135.1827825055;0.980972723
MEX;MEX-MICH;0;Michoacán ;19.151406;-101.904728;120.0096418361;0.7132406174
MEX;MEX-MOR;0;Morelos ;18.725737;-99.077085;28.5209831339;0.9630348249
MEX;MEX-NAY;0;Nayarit ;21.838018;-104.750639;86.2929719001;1.3325545325
MEX;MEX-NL;0;Nuevo León ;25.493649;-99.817835;159.4698691503;1.8413350062
MEX;MEX-OAX;0;Oaxaca ;17.147001;-96.205468;154.9607248913;0.6645000078
MEX;MEX-PUE;0;Puebla ;19.3678285;-97.8935;102.5830089625;1.337065983
MEX;MEX-QRO;0;Querétaro ;20.8418595;-99.826983;57.2122477335;1.1409523127
MEX;MEX-QROO;0;Quintana Roo;19.749715;-88.0188665;128.2788914343;1.5218712427
MEX;MEX-SIN;0;Sinaloa ;24.765541;-107.432334;158.5271199609;1.2535422589
MEX;MEX-SLP;0;San Luis Potosí;22.8425435;-100.3127295;126.2485008304;0.9350284513
MEX;MEX-SON;0;Sonora ;29.40686;-111.796203;213.2362988341;1.0919052512
MEX;MEX-TAB;0;Tabasco;17.950814;-92.5438865;104.1706253516;0.4643006778
MEX;MEX-TAM;0;Tamaulipas;24.939028;-98.625903;188.6560505613;2.0321329246
MEX;MEX-TLAX;0;Tlaxcala;19.4152905;-98.178392;35.7798546295;0.6027655693
MEX;MEX-VER;0;Veracruz;19.7745795;-96.1461045;186.3273322782;1.1292925686
MEX;MEX-YUC;0;Yucatán;20.5808445;-88.891376;98.6931675724;0.7310860502
MEX;MEX-ZAC;0;Zacatecas ;23.0992415;-102.524265;141.9409658147;1.2947543637
MKD;ALL;0;Macedonia;41.6137175;21.746038;66.5946897856;0.7890450354
MNE;ALL;0;Montenegro;42.702799;19.3969785;59.1726819516;1.2144396918
NLD;ALL;0;Netherlands;52.1530175;5.2877605;96.9828103823;1.1849334916
NOR;ALL;0;Norway;64.574995;17.9024765;454.1941850759;1.1692065596
POL;ALL;0;Poland;51.9232765;19.134769;213.3344460795;0.9456995454
PRT;ALL;0;Portugal;39.557108;-7.8454345;179.4498650757;2.0352180182
ROU;ALL;0;Romania;45.9428765;24.986708;227.0826462744;0.7062139143
RUS;ALL;0;Russia;54.9;47.375;1030.8357514157;0.9635759267
SRB;ALL;0;Serbia;44.0231485;20.928195;150.0345188765;1.4527692399
SVK;ALL;0;Slovakia;48.6725905;19.694563;130.5937072624;0.4982458523
SVN;ALL;0;Slovenia;46.1490395;14.99304;77.4844731316;0.6493070776
SWE;ALL;0;Sweden;62.023004;17.546861;483.0655027279;2.2824067006
SYS;ALBA;0;Albania Motorways;41.1532205;20.160916;104.3183023917;2.2341311686
SYS;AUTA;0;Austria Motorways;47.696511;13.345778;177.3516923049;0.5159193439
SYS;AUTS;0;Austria Expressways;47.696511;13.345778;177.3516923049;0.5159193439
SYS;BELA;0;Belgium Motorways;50.501172;4.475497;84.9867629346;0.8168526403
SYS;BGRA;0;Bulgaria Motorways;42.726924;25.4838645;158.5694564701;0.6498742078
SYS;BIHA;0;Bosnia and Herzegovina Motorways;43.9184555;17.671863;97.1209983046;0.9670178044
SYS;CANF;0;Canadian Provincial Freeways;58.0433205;-96.810722;1391.8405307239;0.7452855759
SYS;CANNB;0;New Brunswick Provincial Highways;46.451398;-66.41097;125.7060319082;0.8913345412
SYS;CANNSF;0;Nova Scotia Freeways;45.213898;-63.035803;163.4485262926;0.7705827568
SYS;CANNT;0;Northwest Territorial Highways;65.3194645;-119.234164;487.758719676;0.7484790922
SYS;CANON;0;Ontario King's Highways;46.465893;-84.7487835;490.4257349568;0.6378581053
SYS;CANONF;0;Ontario Provincial Freeways;43.776649;-78.734476;218.8350821565;0.5897831405
SYS;CANQCA;0;Quebec Freeways;46.7063825;-72.25;177.6187614783;0.6588563121
SYS;CANYT;0;Yukon Territorial Highways;64.823584;-132.409892;332.4233635541;1.3235901651
SYS;CHEA;0;Switzerland Motorways;46.8127845;8.2226545;107.2476025836;0.6418592234
SYS;CYPA;0;Cyprus Motorways;35.12962;33.430515;65.6769153603;0.5972330282
SYS;CZED;0;Czech Motorways;49.803583;15.4754475;150.9255716448;0.5733903184
SYS;CZER;0;Czech Expressways;49.803583;15.4754475;150.9255716448;0.5733903184
SYS;DEUA;0;Germany Motorways;51.164393;10.5771585;268.7129633696;1.3916741113
SYS;ESPA;0;Spain National Motorways;39.8956865;-2.987451;333.4658355397;0.8051422338
SYS;ESPACA;0;Spain Select Autonomous Community Motorways;39.8956865;-2.987451;333.4658355397;0.8051422338
SYS;FRAA;0;France Motorways;46.712686;1.5442795;315.7957729227;0.9562202585
SYS;GBNM;0;Great Britain Motorways;54.675254;-3.206777;325.1925618081;1.643058268
SYS;GRCA;0;Greece Motorways;38.334933;23.810619;240.1876598902;0.9812118989
SYS;HRVA;0;Croatia Motorways;44.473734;16.4689415;146.9010932836;0.9792695037
SYS;HUNM;0;Hungary Motorways;47.159959;19.505903;159.3728365255;0.6170070609
SYS;USAI;0;US Interstate Highways;36.964216;-95.847469;1449.2217565979;0.5468058029
SYS;USAIB;0;US Business Interstates;36.964216;-95.847469;1449.2217565979;0.5468058029
SYS;USAIF;0;Future Interstate Highways;36.964216;-95.847469;1449.2217565979;0.5468058029
SYS;IRLM;0;Ireland Motorways;53.401884;-8.3065945;137.0059731189;1.4397560583
SYS;ITAA;0;Italy Motorways;41.86836;12.573587;359.8351115544;1.180602772
SYS;ITASM;0;Italy Select Named Motorways;41.86836;12.573587;359.8351115544;1.180602772
SYS;LUXA;0;Luxembourg Motorways;49.815488;6.1351565;25.4155219711;1.4388461399
SYS;LUXB;0;Luxembourg Expressways;49.815488;6.1351565;25.4155219711;1.4388461399
SYS;MEXD;0;Mexico Federal Expressways;23.635;-101.95;930.2794747992;0.6558342924
SYS;MEXED;0;Mexico State Expressways;23.635;-101.95;930.2794747992;0.6558342924
SYS;MTQA;0;Martinique Motorways;14.635;-61.015;16.2542018712;1.1847818556
SYS;NIRM;0;Northern Ireland Motorways;54.666944;-6.8045945;54.871804775;0.8116297968
SYS;NLDA;0;Netherlands Motorways;52.1530175;5.2877605;96.9828103823;1.1849334916
SYS;POLA;0;Poland Motorways;51.9232765;19.134769;213.3344460795;0.9456995454
SYS;POLS;0;Poland Expressways;51.9232765;19.134769;213.3344460795;0.9456995454
SYS;PRTA;0;Portugal Motorways;39.557108;-7.8454345;179.4498650757;2.0352180182
SYS;ROUA;0;Romania Motorways;45.9428765;24.986708;227.0826462744;0.7062139143
SYS;SVKD;0;Slovakia Motorways;48.6725905;19.694563;130.5937072624;0.4982458523
SYS;SVKR;0;Slovakia Expressways;48.6725905;19.694563;130.5937072624;0.4982458523
SYS;SVNA;0;Slovenia Motorways;46.1490395;14.99304;77.4844731316;0.6493070776
SYS;SVNH;0;Slovenia Expressways;46.1490395;14.99304;77.4844731316;0.6493070776
SYS;CANTCH;0;Trans-Canada Highway;48.5772475;-92.909274;1583.5797270011;0.2632998627
SYS;TURO;0;Turkey Motorways;38.959479;35.240126;509.6817643883;0.4234493378
SYS;USAUS;0;US Numbered Highways;36.964216;-95.847469;1449.2217565979;0.5468058029
SYS;USAAK;0;Alaska State Highways;63.0322285;-149.056225;582.6908735601;0.9824267845
SYS;USAAL;0;Alabama State Highways;32.5986065;-86.6807535;165.6538437309;1.5874341559
SYS;USAAR;0;Arkansas State Highways;34.7593175;-92.1313785;141.1928929227;0.8518951463
SYS;USAAZ;0;Arizona State Highways;34.1657825;-111.9308915;195.7321187846;1.1868055253
SYS;USACA;0;California State Highways;37.264034;-119.2701635;326.0256867767;1.1570130579
SYS;USACO;0;Colorado State Highways;39.0002425;-105.5477905;187.7398592306;0.7364429951
SYS;USACT;0;Connecticut State Highways;41.516936;-72.764216;49.8974567252;0.7381879114
SYS;USADC;0;District of Columbia Dist. Highways;38.8935905;-77.014576;7.051985508;1.2454052678
SYS;USADE;0;Delaware State Highways;39.145381;-75.4187725;48.0051534248;2.4199309625
SYS;USAFL;0;Florida State Highways;27.7690105;-83.833;232.2442011313;0.9588023782
SYS;USAGA;0;Georgia State Highways;32.675634;-83.2230065;160.3395920386;1.1571325412
SYS;USAHI;0;Hawaii State Highways;20.568667;-157.526985;175.9460516285;0.6510515062
SYS;USAIA;0;Iowa State Highways;41.9379295;-93.389798;167.0150935344;0.6464868208
SYS;USAID;0;Idaho State Highways;45.497902;-114.058977;241.9224054716;1.664725197
SYS;USAIL;0;Illinois State Highways;39.7314625;-89.522314;190.7618023959;1.8037549166
SYS;USAIN;0;Indiana State Highways;39.7659825;-86.44132;137.8492927771;1.5661398469
SYS;USAKS;0;Kansas State Highways;38.499538;-98.3195815;201.6344901169;0.5140403453
SYS;USAKY;0;Kentucky State Highways;37.822851;-85.768253;207.4520093634;0.4410445089
SYS;USALA;0;Louisiana State Highways;30.951762;-91.509661;150.1495283096;0.9517040723
SYS;USAMA;0;Massachusetts State Highways;42.148273;-71.718173;91.7606101433;0.5565367635
SYS;USAMD;0;Maryland State Highways;38.8160295;-77.2629155;119.2477306814;0.5240934796
SYS;USAME;0;Maine State Highways;45.262159;-69.016598;151.8822675487;1.5100239266
SYS;USAMI;0;Michigan State Highways;44.6062885;-86.4156925;198.5258044912;1.0089325324
SYS;USAMN;0;Minnesota State Highways;46.442359;-93.365105;203.222285678;1.1025972032
SYS;USAMO;0;Missouri State Highways;38.291678;-92.437236;180.9535443462;0.8757447646
SYS;USAMS;0;Mississippi State Highways;32.585593;-89.8764965;166.5515781872;1.6083289482
SYS;USAMT;0;Montana State Highways;46.680157;-110.051233;283.6193382854;0.564802215
SYS;USANC;0;North Carolina State Highways;35.2196035;-79.891353;249.7690447537;0.3781820473
SYS;USAND;0;North Dakota State Highways;47.4736995;-100.303843;175.0537141525;0.6033089685
SYS;USANE;0;Nebraska State Highways;41.499278;-99.6807685;226.0453595074;0.4580147021
SYS;USANH;0;New Hampshire State Highways;44.0161605;-71.63269;89.1556059779;1.9393378175
SYS;USANJ;0;New Jersey State Highways;40.1430085;-74.732639;83.9787475435;1.8942789959
SYS;USANM;0;New Mexico State Highways;34.1656655;-106.023717;195.7401816954;1.1335094961
SYS;USANSF;0;US Select Numbered Freeways;36.964216;-95.847469;1449.2217565979;0.5468058029
SYS;USANV;0;Nevada State Highways;38.497799;-117.0213625;241.3533849452;1.4993902381
SYS;USANY;0;New York State Highways;42.754441;-75.809109;200.4241036391;0.7783602966
SYS;USAOH;0;Ohio State Highways;40.1904525;-82.6700095;123.5434440694;1.0881607934
SYS;USAOK;0;Oklahoma State Highways;35.310848;-98.7171915;241.3320792901;0.4829578524
SYS;USAOR;0;Oregon State Routes;44.146315;-120.5144065;200.7147503372;0.7408443981
SYS;USAPA;0;Pennsylvania State Highways;40.995;-77.62;151.2570168344;0.582611734
SYS;USAPR;0;Puerto Rico State Highways;18.214246;-66.2692295;65.8388518358;0.3171957443
SYS;USARI;0;Rhode Island State Highways;41.6609875;-71.5035545;24.7482695942;1.2507487038
SYS;USASC;0;South Carolina State Highways;33.6187245;-80.9475975;138.5105961612;0.78916939
SYS;USASD;0;South Dakota State Highways;44.212496;-100.253253;188.1099290634;0.6364303441
SYS;USASF;0;US Select Named Freeways;36.964216;-95.847469;1449.2217565979;0.5468058029
SYS;USATN;0;Tennessee State Highways;35.8371305;-85.978663;242.359634128;0.2396939774
SYS;USATX;0;Texas State Highways;31.1685915;-100.0767845;386.6671058972;0.9491380796
SYS;USAUT;0;Utah State Highways;39.496396;-111.543471;172.5689376477;1.2955840579
SYS;USAVA;0;Virginia State Highways;38.0000535;-79.458705;229.365423734;0.4413318004
SYS;USAVT;0;Vermont State Highways;43.8706635;-72.4480925;79.0987703609;1.6140146821
SYS;USAWA;0;Washington State Highways;47.275227;-120.833746;183.3271508307;0.6508286829
SYS;USAWI;0;Wisconsin State Highways;44.7850765;-89.826841;158.4348997916;1.0548546257
SYS;USAWV;0;West Virginia State Highways;38.9201735;-80.1817065;132.4389728197;0.8970673849
SYS;USAWY;0;Wyoming State Highways;43.001364;-107.554222;176.8678644406;0.781339247
SYS;USAUSB;0;US Auxiliary Numbered Highways;36.964216;-95.847469;1449.2217565979;0.5468058029
TJK;ALL;0;Tajikistan;38.858218;71.245449;210.0049028286;0.7191081625
TKM;ALL;0;Turkmenistan;38.963236;59.5775465;381.24970099;0.692474018
TUR;ALL;0;Turkey;38.959479;35.240126;509.6817643883;0.4234493378
UKR;ALL;0;Ukraine;48.3835485;31.1737595;411.9531139238;0.6674637865
RKS;ALL;0;Kosovo;42.561234;20.9030785;49.0223079527;1.0858011574
USA;AK;0;Alaska;63.0322285;-149.056225;582.6908735601;0.9824267845
USA;AL;0;Alabama;32.5986065;-86.6807535;165.6538437309;1.5874341559
USA;ALL;0;United States of America;36.964216;-95.847469;1449.2217565979;0.5468058029
USA;ALL;1;Southwestern United States;35.25;-116;448.4634561634;0.5746222077
USA;ALL;2;Southern United States;31.75;-100;497.4544103454;1.0666997578
USA;ALL;3;Southeastern United States;31.75;-83.5;497.4544103454;1.0040706124
USA;ALL;4;Northwestern United States;44.05;-114.8;482.3813845105;0.7186673399
USA;ALL;5;Northern United States;44.05;-95.5;467.8940826048;0.7412554141
USA;ALL;6;Northeastern United States;44.05;-76.5;467.8940826048;0.7412554141
USA;AR;0;Arkansas;34.7593175;-92.1313785;141.1928929227;0.8518951463
USA;AZ;0;Arizona;34.1657825;-111.9308915;195.7321187846;1.1868055253
USA;CA;0;California;37.264034;-119.2701635;326.0256867767;1.1570130579
USA;CO;0;Colorado;39.0002425;-105.5477905;187.7398592306;0.7364429951
USA;CT;0;Connecticut;41.516936;-72.764216;49.8974567252;0.7381879114
USA;DC;0;District of Columbia;38.8935915;-77.014576;7.052054675;1.2454175005
USA;DE;0;Delaware;39.145381;-75.4187725;48.0051534248;2.4199309625
USA;FL;0;Florida;27.7690105;-83.833;232.2442011313;0.9588023782
USA;GA;0;Georgia;32.675634;-83.2230065;160.3395920386;1.1571325412
USA;HI;0;Hawaii;20.568667;-157.526985;175.9460516285;0.6510515062
USA;IA;0;Iowa;41.9379295;-93.389798;167.0150935344;0.6464868208
USA;ID;0;Idaho;45.497902;-114.058977;241.9224054716;1.664725197
USA;IL;0;Illinois;39.7314625;-89.522314;190.7618023959;1.8037549166
USA;IN;0;Indiana;39.7659825;-86.44132;137.8492927771;1.5661398469
USA;KS;0;Kansas;38.499538;-98.3195815;201.6344901169;0.5140403453
USA;KY;0;Kentucky;37.822851;-85.768253;207.4520093634;0.4410445089
USA;LA;0;Louisiana;30.951762;-91.509661;150.1495283096;0.9517040723
USA;MA;0;Massachusetts;42.148273;-71.718173;91.7606101433;0.5565367635
USA;MD;0;Maryland;38.8160295;-77.2629155;119.2477306814;0.5240934796
USA;ME;0;Maine;45.262159;-69.016598;151.8822675487;1.5100239266
USA;MI;0;Michigan;44.6062885;-86.4156925;198.5258044912;1.0089325324
USA;MN;0;Minnesota;46.442359;-93.365105;203.222285678;1.1025972032
USA;MO;0;Missouri;38.291678;-92.437236;180.9535443462;0.8757447646
USA;MS;0;Mississippi;32.585593;-89.8764965;166.5515781872;1.6083289482
USA;MT;0;Montana;46.680157;-110.051233;283.6193382854;0.564802215
USA;NC;0;North Carolina;35.2196035;-79.891353;249.7690447537;0.3781820473
USA;ND;0;North Dakota;47.4736995;-100.303843;175.0537141525;0.6033089685
USA;NE;0;Nebraska;41.499278;-99.6807685;226.0453595074;0.4580147021
USA;NH;0;New Hampshire;44.0161605;-71.63269;89.1556059779;1.9393378175
USA;NJ;0;New Jersey;40.1430085;-74.732639;83.9787475435;1.8942789959
USA;NM;0;New Mexico;34.1656655;-106.023717;195.7401816954;1.1335094961
USA;NV;0;Nevada;38.497799;-117.0213625;241.3533849452;1.4993902381
USA;NY;0;New York;42.754441;-75.809109;200.4241036391;0.7783602966
USA;OH;0;Ohio;40.1904525;-82.6700095;123.5434440694;1.0881607934
USA;OK;0;Oklahoma;35.310848;-98.7171915;241.3320792901;0.4829578524
USA;OR;0;Oregon;44.146315;-120.5144065;200.7147503372;0.7408443981
USA;PA;0;Pennsylvania;40.995;-77.62;151.2570168344;0.582611734
USA;PR;0;Puerto Rico;18.214246;-66.2692295;65.8388518358;0.3171957443
USA;RI;0;Rhode Island;41.6609875;-71.5035545;24.7482695942;1.2507487038
USA;SC;0;South Carolina;33.6187245;-80.9475975;138.5105961612;0.78916939
USA;SD;0;South Dakota;44.212496;-100.253253;188.1099290634;0.6364303441
USA;TN;0;Tennessee;35.8371305;-85.978663;242.359634128;0.2396939774
USA;TX;0;Texas;31.1685915;-100.0767845;386.6671058972;0.9491380796
USA;UT;0;Utah;39.496396;-111.543471;172.5689376477;1.2955840579
USA;VA;0;Virginia;38.0000535;-79.458705;229.365423734;0.4413318004
USA;VT;0;Vermont;43.8706635;-72.4480925;79.0987703609;1.6140146821
USA;WA;0;Washington;47.275227;-120.833746;183.3271508307;0.6508286829
USA;WI;0;Wisconsin;44.7850765;-89.826841;158.4348997916;1.0548546257
USA;WV;0;West Virginia;38.9201735;-80.1817065;132.4389728197;0.8970673849
USA;WY;0;Wyoming;43.001364;-107.554222;176.8678644406;0.781339247
UZB;ALL;0;Uzbekistan;41.3855985;64.5744335;441.4504669647;0.6547204938
RUS;RUS-AD;0;Adygeya;44.475;39.725;50.5832513386;0.991282232
RUS;RUS-AST;0;Astrakhan;46.65;47.075;152.0561154252;1.5083616425
RUS;RUS-BA;0;Bashkortostan;54.075;56.675;177.9262111378;1.300867588
RUS;RUS-BEL;0;Belgorod;50.625;37.3;87.7265060035;0.6503064906
RUS;RUS-BRY;0;Bryansk;52.925;33.3;85.449928714;0.9104188632
RUS;RUS-CE;0;Chechnya;43.25;45.725;55.3285248767;1.1874203391
RUS;RUS-CHE;0;Chelyabinsk;54.2;60.225;152.0561154252;1.2038986472
RUS;RUS-CU;0;Chuvashia;55.475;45.15;133.1574272475;0.4542538544
RUS;RUS-DA;0;Dagestan;43.075;46.85;133.0721005474;1.5060089241
RUS;RUS-IN;0;Ingushetia;43.125;44.925;36.3113596773;1.692506122
RUS;RUS-KB;0;Kabardino-Balkaria;43.45;43.45;52.7184157484;0.7871398599
RUS;RUS-KDA;0;Krasnodar;45.125;39.175;125.5805464132;0.977145251
RUS;RUS-KGD;0;Kaliningrad;54.8;21.275;64.7748198201;0.5338351921
RUS;RUS-KGN;0;Kurgan;55.5;65.4;131.1197509072;0.7117526315
RUS;RUS-KL;0;Kalmykia;46.45;44.65;142.8390980163;0.8710524751
RUS;RUS-KLU;0;Kaluga;54.3;35.35;78.6804163891;0.9228655976
RUS;RUS-KR;0;Karelia;63.675;33.6;208.9398375216;1.5693318076
RUS;RUS-KRS;0;Kursk;51.675;36.325;95.3926848688;0.5617746901
RUS;RUS-LEN;0;Leningrad;59.85;31.625;136.195738374;0.7359513419
RUS;RUS-LIP;0;Lipetsk;52.75;39.275;63.8335201088;0.9209058164
RUS;RUS-MO;0;Mordovia;54.425;44.45;92.5089226511;0.579296787
RUS;RUS-MOS;0;Moskva;55.6;37.675;98.6178676355;0.9465532171
RUS;RUS-MOW;0;Moskva (Gorod);55.75;37.575;20.7499350381;1.2542299135
RUS;RUS-MUR;0;Murmansk;67.975;34.9;168.137973443;0.8117289458
RUS;RUS-NGR;0;Novgorod;58.175;32.925;121.1695435799;0.7274697388
RUS;RUS-NIZ;0;Nizhegorod;56.275;44.775;126.1664726194;1.0869808217
RUS;RUS-OMS;0;Omsk;56;73.375;179.6501076429;1.5900673899
RUS;RUS-ORE;0;Orenburg;52.425;56.225;230.3140528569;0.57713235
RUS;RUS-ORL;0;Oryol;52.775;36.45;69.0237371486;0.8766881326
RUS;RUS-PER;0;Perm;58.9;56.6;193.4375012712;1.8698108998
RUS;RUS-PNZ;0;Penza;53.175;44.525;102.5514190325;0.5899596328
RUS;RUS-PSK;0;Pskov;57.3;29.4;120.9864914093;1.542768025
RUS;RUS-ROS;0;Rostov;48.075;41.275;150.3307105433;1.0588901944
RUS;RUS-RYA;0;Ryazan';54.35;40.65;80.5984980549;0.9008944874
RUS;RUS-SAM;0;Samara;53.225;50.225;101.9881076374;1.0598759628
RUS;RUS-SAR;0;Saratov;51.325;46.675;180.1712558103;0.5848383815
RUS;RUS-SE;0;North Ossetia-Alania;43.2;44.15;44.9559157791;1.1146054046
RUS;RUS-SMO;0;Smolensk;54.75;33.075;93.3500692938;1.0062484819
RUS;RUS-SPE;0;Sankt Peterburg;59.925;30.1;24.2625487856;0.926488941
RUS;RUS-STA;0;Stavropol;44.94;43.275;118.6568760691;0.751628725
RUS;RUS-SVE;0;Sverdlovsk;58.975;61.8;205.4956844988;1.2980555889
RUS;RUS-TA;0;Tatarstan;55.325;50.775;138.5674003491;0.6859259153
RUS;RUS-TAM;0;Tambov;52.7;41.6;79.5264864232;1.1502376393
RUS;RUS-TUL;0;Tula;53.875;37.425;67.4284492602;1.0845471363
RUS;RUS-TVE;0;Tver';57.25;34.55;142.0225015001;0.8030617217
RUS;RUS-TYU;0;Tyumen;57.55;69.975;191.6472847076;0.8831930454
RUS;RUS-UD;0;Udmurtia;57.2;52.75;93.3500692938;1.5105211982
RUS;RUS-ULY;0;Ul'yanosk;53.65;48.075;89.1312419135;0.8921942422
RUS;RUS-VGG;0;Volgograd;49.325;44.3;141.8731123946;0.9378931518
RUS;RUS-VLA;0;Vladimir;55.9;40.625;92.0546680396;0.6009362076
RUS;RUS-VOR;0;Voronezh;50.85;40.525;105.8405951716;0.8492538108
RUS;RUS-YAR;0;Yaroslav;57.75;39.2;82.9826744437;1.1837417099
JAM;ALL;0;Jamaica;18.265;-77.275;73.8795520626;0.5756742514
SYS;JAMT;0;Jamaica Motorways;18.265;-77.275;73.8795520626;0.5756742514
KAZ;KAZ-AKM;0;Akmola;51.825;68.825;233.4288204666;0.5546152239
KAZ;KAZ-AKT;0;Aktobe;48.3;58.95;243.2103524097;0.8799532822
KAZ;KAZ-ALA;0;Almaty (City);43.25;76.925;6.9167292909;1.0983418217
KAZ;KAZ-ALM;0;Almaty;44.775;78.2;215.6159376432;0.8248078664
KAZ;KAZ-AST;0;Astana;51.15;71.47;8.3000695867;1.1253010577
KAZ;KAZ-ATY;0;Atyrau;47.51;51.77;220.5057295118;0.5292898323
KAZ;KAZ-KAR;0;Karagandy;48.625;70.15;345.5579458631;0.5333821726
KAZ;KAZ-KUS;0;Kostanay;51.425;64.15;226.1532803011;1.2662872077
KAZ;KAZ-KZY;0;Kyzylorda;45.05;63.675;223.0879312972;0.8512701178
KAZ;KAZ-MAN;0;Mangystau;43.875;53.5;181.3739014925;1.1207553793
KAZ;KAZ-PAV;0;Pavlodar;52.225;76.4;153.7814334306;1.2316228083
KAZ;KAZ-SEV;0;Soltustik Kazakhstan;53.825;70.05;163.0803040286;0.6886282753
KAZ;KAZ-VOS;0;Shyghys Kazakhstan;48.6;81.95;244.0499214787;0.8769145857
KAZ;KAZ-YUZ;0;Ongtustik Kazakhstan;43.325;68.45;188.2680306175;1.5291342348
KAZ;KAZ-ZAP;0;Batys Kazakhstan;49.875;50.55;180.2555510208;0.7378926636
KAZ;KAZ-ZHA;0;Jambyl;44.175;72.475;164.7584708249;0.7445193092
IMN;ALL;0;Isle of Man;54.24;-4.525;11.0667405705;1.2168427402
JEY;ALL;0;Jersey;49.215;-2.115;6.0995182223;0.510290997
SYS;IMNA;0;Isle of Man A Roads;54.24;-4.525;11.0667405705;1.2168427402
SYS;JEYA;0;Jersey A Roads;49.215;-2.115;6.0995182223;0.510290997
SYS;NIRA;0;Northern Ireland A Roads;54.666944;-6.8045945;54.871804775;0.8116297968
SYS;IRLN;0;Ireland National Roads;53.401884;-8.3065945;137.0059731189;1.4397560583
SYS;GBNA;0;Great Britain A Roads;54.675254;-3.206777;325.1925618081;1.643058268
SYS;CANNST;0;Nova Scotia Trunk Routes;45.213898;-63.035803;163.4485262926;0.7705827568
SYS;CANNSC;0;Nova Scotia Collector Routes;45.213898;-63.035803;163.4485262926;0.7705827568
SYS;CANPE;0;Prince Edward Island Provincial Highways;46.5036065;-63.1920385;58.1449398082;0.6604386773
